IRIDIUM 112             
1 41925U 17003J   24198.93669226  .00000037  00000+0  60747-5 0  9997
2 41925  86.3966  20.9290 0001914  96.7868 263.3546 14.34216194392909
IRIDIUM 111             
1 41926U 17003K   24199.20308143  .00000123  00000+0  36717-4 0  9992
2 41926  86.3966  20.8724 0002259  98.7104 261.4348 14.34217808392990
IRIDIUM 113             
1 42803U 17039A   24199.18304615  .00000062  00000+0  15006-4 0  9993
2 42803  86.3952 254.6467 0002365  98.5966 261.5497 14.34218003370858
IRIDIUM 123             
1 42804U 17039B   24199.50359866  .00000717  00000+0  24893-3 0  9998
2 42804  86.3966 286.0215 0002303  96.9312 263.2146 14.34219458369665
IRIDIUM 120             
1 42805U 17039C   24199.52554468  .00000541  00000+0  18596-3 0  9994
2 42805  86.3943 254.3769 0002249  91.6732 268.4721 14.34218076370898
IRIDIUM 115             
1 42806U 17039D   24198.66912998  .00000571  00000+0  16367-3 0  9992
2 42806  86.4480 254.7639 0002494 101.5155 258.6326 14.43282116373226
IRIDIUM 118             
1 42807U 17039E   24199.53531124  .00000280  00000+0  93045-4 0  9994
2 42807  86.3964 286.0093 0002117  94.6869 265.4568 14.34219018369670
IRIDIUM 117             
1 42808U 17039F   24199.48457173  .00000022  00000+0  84335-6 0  9998
2 42808  86.3964 285.9948 0002471  97.3053 262.8424 14.34217743369693
